{
  "norad_id": 68714,
  "name": "STARLINK-37225",
  "history": [
    {
      "epoch": "2026-04-23T16:59:07.973088Z",
      "apogee_km": 317.64351794529557,
      "perigee_km": 314.67125123853657,
      "latitude_deg": -4.0066241084164885e-05,
      "longitude_deg": 88.67335560834942,
      "height_km": 315.9831310880439,
      "semi_major_axis_km": 6694.294384591916,
      "eccentricity": 0.000222,
      "inclination_deg": 53.1605,
      "raan_deg": 195.2077,
      "arg_perigee_deg": 42.6323,
      "mean_anomaly_deg": 317.4873,
      "mean_motion_rev_day": 15.85059436
    }
  ]
}