STARLINK-37225          
1 68714U 26081R   26113.70773117 -.00744780  00000+0 -33643-2 0  9991
2 68714  53.1605 195.2077 0002220  42.6323 317.4873 15.85059436  1498
